{
  "type": "FeatureCollection",
  "features": [
    {
      "type": "Feature",
      "properties": {
        "norad_id": 34396,
        "name": "COSMOS 2251 DEB",
        "group": "cosmos-2251-debris",
        "lat": 45.02149889473821,
        "lon": -94.51361643542084,
        "alt_km": 638.5180599243267,
        "timestamp": "2025-12-23T22:42:33.379983+00:00",
        "meta_object_name": "COSMOS 2251 DEB",
        "meta_object_id": "1993-036QM",
        "meta_epoch": "2025-12-22T15:28:05.079072",
        "meta_mean_motion": 14.74662035,
        "meta_eccentricity": 0.00048491,
        "meta_inclination": 74.0296,
        "meta_ra_of_asc_node": 104.6829,
        "meta_arg_of_pericenter": 141.9813,
        "meta_mean_anomaly": 282.8341,
        "meta_ephemeris_type": 0,
        "meta_classification_type": "U",
        "meta_norad_cat_id": 34396,
        "meta_element_set_no": 999,
        "meta_rev_at_epoch": 88492,
        "meta_bstar": 0.0021939364,
        "meta_mean_motion_dot": 0.00014648,
        "meta_mean_motion_ddot": 0,
        "tle_line1": "1 34396U 93036QM  25356.64450323  .00014648  00000+0  21939-2 0  9992",
        "tle_line2": "2 34396  74.0296 104.6829 0004849 141.9813 282.8341 14.74662035884924"
      },
      "geometry": {
        "type": "Point",
        "coordinates": [
          -94.51361643542084,
          45.02149889473821
        ]
      }
    },
    {
      "type": "Feature",
      "properties": {
        "norad_id": 34400,
        "name": "COSMOS 2251 DEB",
        "group": "cosmos-2251-debris",
        "lat": 22.33802833541986,
        "lon": 171.6571325723564,
        "alt_km": 390.54629811124323,
        "timestamp": "2025-12-23T22:42:33.379993+00:00",
        "meta_object_name": "COSMOS 2251 DEB",
        "meta_object_id": "1993-036QR",
        "meta_epoch": "2025-12-21T23:48:22.088448",
        "meta_mean_motion": 15.57468025,
        "meta_eccentricity": 0.00030633,
        "meta_inclination": 73.963,
        "meta_ra_of_asc_node": 2.8018,
        "meta_arg_of_pericenter": 231.6237,
        "meta_mean_anomaly": 128.4704,
        "meta_ephemeris_type": 0,
        "meta_classification_type": "U",
        "meta_norad_cat_id": 34400,
        "meta_element_set_no": 999,
        "meta_rev_at_epoch": 90118,
        "meta_bstar": 0.0038028437,
        "meta_mean_motion_dot": 0.0028987,
        "meta_mean_motion_ddot": 0,
        "tle_line1": "1 34400U 93036QR  25355.99192232  .00289870  00000+0  38028-2 0  9995",
        "tle_line2": "2 34400  73.9630   2.8018 0003063 231.6237 128.4704 15.57468025901184"
      },
      "geometry": {
        "type": "Point",
        "coordinates": [
          171.6571325723564,
          22.33802833541986
        ]
      }
    },
    {
      "type": "Feature",
      "properties": {
        "norad_id": 34409,
        "name": "COSMOS 2251 DEB",
        "group": "cosmos-2251-debris",
        "lat": 70.22222417410919,
        "lon": -21.825798954210644,
        "alt_km": 683.1902481974757,
        "timestamp": "2025-12-23T22:42:33.380004+00:00",
        "meta_object_name": "COSMOS 2251 DEB",
        "meta_object_id": "1993-036RA",
        "meta_epoch": "2025-12-21T21:12:42.172416",
        "meta_mean_motion": 14.5804854,
        "meta_eccentricity": 0.00802645,
        "meta_inclination": 74.0637,
        "meta_ra_of_asc_node": 289.4706,
        "meta_arg_of_pericenter": 1.4067,
        "meta_mean_anomaly": 54.8119,
        "meta_ephemeris_type": 0,
        "meta_classification_type": "U",
        "meta_norad_cat_id": 34409,
        "meta_element_set_no": 999,
        "meta_rev_at_epoch": 89326,
        "meta_bstar": 0.00022339533,
        "meta_mean_motion_dot": 1.043e-05,
        "meta_mean_motion_ddot": 0,
        "tle_line1": "1 34409U 93036RA  25355.88382144  .00001043  00000+0  22340-3 0  9990",
        "tle_line2": "2 34409  74.0637 289.4706 0080264   1.4067  54.8119 14.58048540893268"
      },
      "geometry": {
        "type": "Point",
        "coordinates": [
          -21.825798954210644,
          70.22222417410919
        ]
      }
    },
    {
      "type": "Feature",
      "properties": {
        "norad_id": 34410,
        "name": "COSMOS 2251 DEB",
        "group": "cosmos-2251-debris",
        "lat": 65.1295258120414,
        "lon": -83.12334620902686,
        "alt_km": 484.77000097211294,
        "timestamp": "2025-12-23T22:42:33.380014+00:00",
        "meta_object_name": "COSMOS 2251 DEB",
        "meta_object_id": "1993-036RB",
        "meta_epoch": "2025-12-22T16:29:32.981856",
        "meta_mean_motion": 15.19799022,
        "meta_eccentricity": 0.0021353,
        "meta_inclination": 73.7364,
        "meta_ra_of_asc_node": 240.5291,
        "meta_arg_of_pericenter": 80.2588,
        "meta_mean_anomaly": 304.8735,
        "meta_ephemeris_type": 0,
        "meta_classification_type": "U",
        "meta_norad_cat_id": 34410,
        "meta_element_set_no": 999,
        "meta_rev_at_epoch": 89925,
        "meta_bstar": 0.0021826237,
        "meta_mean_motion_dot": 0.00047302,
        "meta_mean_motion_ddot": 0,
        "tle_line1": "1 34410U 93036RB  25356.68718729  .00047302  00000+0  21826-2 0  9998",
        "tle_line2": "2 34410  73.7364 240.5291 0021353  80.2588 304.8735 15.19799022899250"
      },
      "geometry": {
        "type": "Point",
        "coordinates": [
          -83.12334620902686,
          65.1295258120414
        ]
      }
    },
    {
      "type": "Feature",
      "properties": {
        "norad_id": 34412,
        "name": "COSMOS 2251 DEB",
        "group": "cosmos-2251-debris",
        "lat": -29.22238398177784,
        "lon": 132.8013396678344,
        "alt_km": 872.8803930545691,
        "timestamp": "2025-12-23T22:42:33.380024+00:00",
        "meta_object_name": "COSMOS 2251 DEB",
        "meta_object_id": "1993-036RD",
        "meta_epoch": "2025-12-22T14:13:35.844672",
        "meta_mean_motion": 14.4724847,
        "meta_eccentricity": 0.01875767,
        "meta_inclination": 73.949,
        "meta_ra_of_asc_node": 306.0781,
        "meta_arg_of_pericenter": 38.8594,
        "meta_mean_anomaly": 322.5877,
        "meta_ephemeris_type": 0,
        "meta_classification_type": "U",
        "meta_norad_cat_id": 34412,
        "meta_element_set_no": 999,
        "meta_rev_at_epoch": 87793,
        "meta_bstar": 0.0016240392,
        "meta_mean_motion_dot": 7.383e-05,
        "meta_mean_motion_ddot": 0,
        "tle_line1": "1 34412U 93036RD  25356.59277598  .00007383  00000+0  16240-2 0  9993",
        "tle_line2": "2 34412  73.9490 306.0781 0187576  38.8594 322.5877 14.47248470877933"
      },
      "geometry": {
        "type": "Point",
        "coordinates": [
          132.8013396678344,
          -29.22238398177784
        ]
      }
    },
    {
      "type": "Feature",
      "properties": {
        "norad_id": 34413,
        "name": "COSMOS 2251 DEB",
        "group": "cosmos-2251-debris",
        "lat": -24.739652102108924,
        "lon": -123.05701407395755,
        "alt_km": 736.718507024274,
        "timestamp": "2025-12-23T22:42:33.380045+00:00",
        "meta_object_name": "COSMOS 2251 DEB",
        "meta_object_id": "1993-036RE",
        "meta_epoch": "2025-12-23T03:23:11.914368",
        "meta_mean_motion": 14.29172419,
        "meta_eccentricity": 0.00909755,
        "meta_inclination": 74.0308,
        "meta_ra_of_asc_node": 245.9868,
        "meta_arg_of_pericenter": 320.5539,
        "meta_mean_anomaly": 192.815,
        "meta_ephemeris_type": 0,
        "meta_classification_type": "U",
        "meta_norad_cat_id": 34413,
        "meta_element_set_no": 999,
        "meta_rev_at_epoch": 87279,
        "meta_bstar": 0.0013844496,
        "meta_mean_motion_dot": 3.65e-05,
        "meta_mean_motion_ddot": 0,
        "tle_line1": "1 34413U 93036RE  25357.14111012  .00003650  00000+0  13844-2 0  9994",
        "tle_line2": "2 34413  74.0308 245.9868 0090975 320.5539 192.8150 14.29172419872797"
      },
      "geometry": {
        "type": "Point",
        "coordinates": [
          -123.05701407395755,
          -24.739652102108924
        ]
      }
    },
    {
      "type": "Feature",
      "properties": {
        "norad_id": 34420,
        "name": "COSMOS 2251 DEB",
        "group": "cosmos-2251-debris",
        "lat": -24.974296586269062,
        "lon": -90.0531876012673,
        "alt_km": 597.149433280234,
        "timestamp": "2025-12-23T22:42:33.380057+00:00",
        "meta_object_name": "COSMOS 2251 DEB",
        "meta_object_id": "1993-036RM",
        "meta_epoch": "2025-12-22T17:02:12.753312",
        "meta_mean_motion": 14.6832519,
        "meta_eccentricity": 0.01061899,
        "meta_inclination": 74.0333,
        "meta_ra_of_asc_node": 84.6741,
        "meta_arg_of_pericenter": 203.4437,
        "meta_mean_anomaly": 309.7796,
        "meta_ephemeris_type": 0,
        "meta_classification_type": "U",
        "meta_norad_cat_id": 34420,
        "meta_element_set_no": 999,
        "meta_rev_at_epoch": 89916,
        "meta_bstar": 0.00019514401,
        "meta_mean_motion_dot": 1.191e-05,
        "meta_mean_motion_ddot": 0,
        "tle_line1": "1 34420U 93036RM  25356.70986983  .00001191  00000+0  19514-3 0  9999",
        "tle_line2": "2 34420  74.0333  84.6741 0106189 203.4437 309.7796 14.68325190899166"
      },
      "geometry": {
        "type": "Point",
        "coordinates": [
          -90.0531876012673,
          -24.974296586269062
        ]
      }
    }
  ]
}